NORAD_CAT_ID,OBJECT_NAME,OBJECT_TYPE,EPOCH,MEAN_MOTION,ECCENTRICITY,INCLINATION,RA_OF_ASC_NODE,ARG_OF_PERICENTER,MEAN_ANOMALY,BSTAR,MEAN_MOTION_DOT,MEAN_MOTION_DDOT,TLE_LINE0,TLE_LINE1,TLE_LINE2,SEMIMAJOR_AXIS,PERIOD,APOGEE,PERIGEE,DECAYED
55302.0,STARLINK-5321,PAYLOAD,2023-10-20 11:41:13,14.98320449,0.0002886,70.0004,60.9765,273.6023,86.4806,-8.6405e-05,-1.124e-05,0.0,0 STARLINK-5321,1 55302U 23010AK  23293.48695872 -.00001124  00000-0 -86405-4 0  9996,2 55302  70.0004  60.9765 0002886 273.6023  86.4806 14.98320449 42460,6950.222,96.108,574.093,570.082,0.0
55302.0,STARLINK-5321,PAYLOAD,2023-10-20 18:05:45,14.98320663,0.0002713,70.0002,60.3023,276.4692,83.6158,-0.00011885,-1.51e-05,0.0,0 STARLINK-5321,1 55302U 23010AK  23293.75400128 -.00001510  00000-0 -11885-3 0  9992,2 55302  70.0002  60.3023 0002713 276.4692  83.6158 14.98320663 42817,6950.222,96.108,573.972,570.201,0.0
55302.0,STARLINK-5321,PAYLOAD,2023-10-21 11:43:13,14.98332609,0.0002971,70.0003,58.4504,275.1333,84.9487,-2.9971e-05,-4.51e-06,0.0,0 STARLINK-5321,1 55302U 23010AK  23294.48835047 -.00000451  00000-0 -29971-4 0  9994,2 55302  70.0003  58.4504 0002971 275.1333  84.9487 14.98332609 42614,6950.185,96.107,574.115,569.985,0.0
55302.0,STARLINK-5321,PAYLOAD,2023-10-21 14:55:29,14.9834041,0.0002868,69.9996,58.1131,271.5193,88.5637,-7.7658e-06,-1.86e-06,0.0,0 STARLINK-5321,1 55302U 23010AK  23294.62186436 -.00000186  00000-0 -77658-5 0  9992,2 55302  69.9996  58.1131 0002868 271.5193  88.5637 14.98340410 42946,6950.161,96.106,574.019,570.032,0.0
55302.0,STARLINK-5321,PAYLOAD,2023-10-21 18:07:45,14.98338044,0.000234,69.9995,57.7759,255.8148,104.2751,4.0539e-05,3.91e-06,0.0,0 STARLINK-5321,1 55302U 23010AK  23294.75538387  .00000391  00000-0  40539-4 0  9995,2 55302  69.9995  57.7759 0002340 255.8148 104.2751 14.98338044 42657,6950.168,96.106,573.659,570.407,0.0
55302.0,STARLINK-5321,PAYLOAD,2023-10-22 02:08:26,14.98320246,0.0002688,70.001,56.9371,276.663,83.4223,4.0712e-05,3.93e-06,0.0,0 STARLINK-5321,1 55302U 23010AK  23295.08919529  .00000393  00000-0  40712-4 0  9998,2 55302  70.0010  56.9371 0002688 276.6630  83.4223 14.98320246 42704,6950.223,96.108,573.956,570.22,0.0
55302.0,STARLINK-5321,PAYLOAD,2023-10-22 13:21:23,14.98317606,0.0002926,70.0007,55.7581,272.6341,87.4483,2.581e-06,-6.2e-07,0.0,0 STARLINK-5321,1 55302U 23010AK  23295.55651989 -.00000062  00000-0  25810-5 0  9990,2 55302  70.0007  55.7581 0002926 272.6341  87.4483 14.98317606 43080,6950.231,96.108,574.13,570.063,0.0
55302.0,STARLINK-5321,PAYLOAD,2023-10-22 18:09:47,14.98319791,0.000295,70.0008,55.2536,271.8707,88.2114,1.6004e-05,9.8e-07,0.0,0 STARLINK-5321,1 55302U 23010AK  23295.75679933  .00000098  00000-0  16004-4 0  9993,2 55302  70.0008  55.2536 0002950 271.8707  88.2114 14.98319791 43111,6950.224,96.108,574.14,570.039,0.0
55302.0,STARLINK-5321,PAYLOAD,2023-10-23 11:47:15,14.98333264,0.0003068,70.0007,53.4022,270.6184,89.4624,-7.7733e-06,-1.86e-06,0.0,0 STARLINK-5321,1 55302U 23010AK  23296.49115224 -.00000186  00000-0 -77733-5 0  9990,2 55302  70.0007  53.4022 0003068 270.6184  89.4624 14.98333264 42914,6950.183,96.107,574.18,569.915,0.0
55302.0,STARLINK-5321,PAYLOAD,2023-10-23 14:59:31,14.98338221,0.0003156,70.0006,53.0665,271.0206,89.0592,1.0277e-05,3e-07,0.0,0 STARLINK-5321,1 55302U 23010AK  23296.62466820  .00000030  00000-0  10277-4 0  9991,2 55302  70.0006  53.0665 0003156 271.0206  89.0592 14.98338221 43245,6950.167,96.106,574.226,569.839,0.0
55302.0,STARLINK-5321,PAYLOAD,2023-10-24 11:49:16,14.98323569,0.0002958,70.0009,50.8784,271.4681,88.6139,7.8159e-05,8.4e-06,0.0,0 STARLINK-5321,1 55302U 23010AK  23297.49255526  .00000840  00000-0  78159-4 0  9998,2 55302  70.0009  50.8784 0002958 271.4681  88.6139 14.98323569 43066,6950.213,96.107,574.134,570.022,0.0
55302.0,STARLINK-5321,PAYLOAD,2023-10-25 11:51:17,14.98332048,0.0002922,70.0008,48.3529,268.3848,91.6976,-2.6497e-05,-4.09e-06,0.0,0 STARLINK-5321,1 55302U 23010AK  23298.49395198 -.00000409  00000-0 -26497-4 0  9990,2 55302  70.0008  48.3529 0002922 268.3848  91.6976 14.98332048 43217,6950.187,96.107,574.082,570.021,0.0
55302.0,STARLINK-5321,PAYLOAD,2023-10-26 11:53:18,14.98327536,0.0002914,70.0014,45.8288,270.1915,89.891,3.7021e-06,-4.9e-07,0.0,0 STARLINK-5321,1 55302U 23010AK  23299.49535239 -.00000049  00000-0  37021-5 0  9998,2 55302  70.0014  45.8288 0002914 270.1915  89.8910 14.98327536 43364,6950.201,96.107,574.091,570.04,0.0
55302.0,STARLINK-5321,PAYLOAD,2023-10-26 13:29:27,14.98320088,0.0003042,70.0006,45.659,263.7368,96.3445,-9.7706e-05,-1.258e-05,0.0,0 STARLINK-5321,1 55302U 23010AK  23299.56211946 -.00001258  00000-0 -97706-4 0  9991,2 55302  70.0006  45.6590 0003042 263.7368  96.3445 14.98320088 43688,6950.224,96.108,574.203,569.974,0.0
55302.0,STARLINK-5321,PAYLOAD,2023-10-26 16:41:43,14.98323837,0.0002893,70.0011,45.3215,268.0984,91.9844,-0.00010664,-1.365e-05,0.0,0 STARLINK-5321,1 55302U 23010AK  23299.69563816 -.00001365  00000-0 -10664-3 0  9997,2 55302  70.0011  45.3215 0002893 268.0984  91.9844 14.98323837 43702,6950.212,96.107,574.088,570.066,0.0
55302.0,STARLINK-5321,PAYLOAD,2023-10-27 13:31:26,14.9834191,0.0003202,70.0001,43.1342,269.975,90.1042,7.3451e-05,7.84e-06,0.0,0 STARLINK-5321,1 55302U 23010AK  23300.56350154  .00000784  00000-0  73451-4 0  9991,2 55302  70.0001  43.1342 0003202 269.9750  90.1042 14.98341910 43527,6950.156,96.106,574.247,569.796,0.0
55302.0,STARLINK-5321,PAYLOAD,2023-10-27 16:43:42,14.98345111,0.0003135,70.0004,42.7975,269.4689,90.6111,0.0001037,1.145e-05,0.0,0 STARLINK-5321,1 55302U 23010AK  23300.69701781  .00001145  00000-0  10370-3 0  9993,2 55302  70.0004  42.7975 0003135 269.4689  90.6111 14.98345111 43853,6950.146,96.106,574.19,569.832,0.0
55302.0,STARLINK-5321,PAYLOAD,2023-10-28 00:44:23,14.98331795,0.000283,70.0011,41.9551,269.457,90.6265,-1.0443e-05,-2.18e-06,0.0,0 STARLINK-5321,1 55302U 23010AK  23301.03082930 -.00000218  00000-0 -10443-4 0  9994,2 55302  70.0011  41.9551 0002830 269.4570  90.6265 14.98331795 43596,6950.187,96.107,574.019,570.085,0.0
55302.0,STARLINK-5321,PAYLOAD,2023-10-28 08:45:04,14.98321311,0.0003175,70.0014,41.115,271.018,89.0615,-5.7927e-05,-7.84e-06,0.0,0 STARLINK-5321,1 55302U 23010AK  23301.36463625 -.00000784  00000-0 -57927-4 0  9990,2 55302  70.0014  41.1150 0003175 271.0180  89.0615 14.98321311 43645,6950.22,96.108,574.291,569.878,0.0
55302.0,STARLINK-5321,PAYLOAD,2023-10-28 13:33:22,14.98409055,0.0003628,70.0008,40.6097,269.3599,90.7145,0.00088889,0.00010551,0.0,0 STARLINK-5321,1 55302U 23010AK  23301.56484070  .00010551  00000-0  88889-3 0  9990,2 55302  70.0008  40.6097 0003628 269.3599  90.7145 14.98409055 43985,6949.948,96.102,574.335,569.292,0.0
55302.0,STARLINK-5321,PAYLOAD,2023-10-28 16:45:44,14.98331027,0.0003448,70.001,40.2733,274.9939,85.0826,2.2298e-05,1.73e-06,0.0,0 STARLINK-5321,1 55302U 23010AK  23301.69842877  .00000173  00000-0  22298-4 0  9999,2 55302  70.0010  40.2733 0003448 274.9939  85.0826 14.98331027 43695,6950.19,96.107,574.451,569.658,0.0
55302.0,STARLINK-5321,PAYLOAD,2023-10-29 10:23:12,14.98343719,0.0002954,70.001,38.4216,269.8986,90.1835,5.3257e-05,5.43e-06,0.0,0 STARLINK-5321,1 55302U 23010AK  23302.43277878  .00000543  00000-0  53257-4 0  9995,2 55302  70.0010  38.4216 0002954 269.8986  90.1835 14.98343719 43807,6950.15,96.106,574.069,569.962,0.0
55302.0,STARLINK-5321,PAYLOAD,2023-10-29 13:35:27,14.9834844,0.0003121,70.0008,38.0842,274.2346,85.8456,0.00010846,1.202e-05,0.0,0 STARLINK-5321,1 55302U 23010AK  23302.56629286  .00001202  00000-0  10846-3 0  9992,2 55302  70.0008  38.0842 0003121 274.2346  85.8456 14.98348440 44135,6950.136,96.106,574.17,569.832,0.0
55302.0,STARLINK-5321,PAYLOAD,2023-10-29 16:47:43,14.98346957,0.0003418,70.0004,37.7475,265.6306,94.4462,7.7058e-05,8.27e-06,0.0,0 STARLINK-5321,1 55302U 23010AK  23302.69981140  .00000827  00000-0  77058-4 0  9997,2 55302  70.0004  37.7475 0003418 265.6306  94.4462 14.98346957 44154,6950.14,96.106,574.381,569.63,0.0
55302.0,STARLINK-5321,PAYLOAD,2023-10-29 23:12:17,14.98325693,0.0003249,70.0005,37.0741,270.519,89.5596,-0.00029889,-3.657e-05,0.0,0 STARLINK-5321,1 55302U 23010AK  23302.96687189 -.00003657  00000-0 -29889-3 0  9997,2 55302  70.0005  37.0741 0003249 270.5190  89.5596 14.98325693 43888,6950.206,96.107,574.329,569.813,0.0
55302.0,STARLINK-5321,PAYLOAD,2023-10-30 12:01:23,14.98286144,0.0002887,70.0006,35.728,254.9217,105.1622,3.044e-06,-5.7e-07,0.0,0 STARLINK-5321,1 55302U 23010AK  23303.50097175 -.00000057  00000-0  30440-5 0  9995,2 55302  70.0006  35.7280 0002887 254.9217 105.1622 14.98286144 43966,6950.329,96.11,574.2,570.187,0.0
55302.0,STARLINK-5321,PAYLOAD,2023-10-30 18:25:55,14.98332161,0.0003199,70.0006,35.0544,261.6035,98.4761,-0.00076931,-9.261e-05,0.0,0 STARLINK-5321,1 55302U 23010AK  23303.76799841 -.00009261  00000-0 -76931-3 0  9992,2 55302  70.0006  35.0544 0003199 261.6035  98.4761 14.98332161 44007,6950.186,96.107,574.275,569.828,0.0
55302.0,STARLINK-5321,PAYLOAD,2023-10-31 12:03:14,14.98442873,0.0002937,70.0019,33.2031,259.0592,101.0237,0.0013289,0.00015845,0.0,0 STARLINK-5321,1 55302U 23010AK  23304.50224616  .00015845  00000-0  13289-2 0  9997,2 55302  70.0019  33.2031 0002937 259.0592 101.0237 14.98442873 44113,6949.844,96.1,573.75,569.668,0.0
55302.0,STARLINK-5321,PAYLOAD,2023-10-31 13:39:31,14.98318217,0.0002851,70.0019,33.035,253.4746,106.61,-6.5429e-05,-8.73e-06,0.0,0 STARLINK-5321,1 55302U 23010AK  23304.56911448 -.00000873  00000-0 -65429-4 0  9991,2 55302  70.0019  33.0350 0002851 253.4746 106.6100 14.98318217 44438,6950.229,96.108,574.076,570.113,0.0
55302.0,STARLINK-5321,PAYLOAD,2023-10-31 16:51:45,14.98345666,0.0003046,70.002,32.6983,258.689,101.3927,0.00022939,2.646e-05,0.0,0 STARLINK-5321,1 55302U 23010AK  23304.70261080  .00002646  00000-0  22939-3 0  9993,2 55302  70.0020  32.6983 0003046 258.6890 101.3927 14.98345666 44146,6950.144,96.106,574.126,569.892,0.0
